{
  "type": "FeatureCollection",
  "features": [
    {
      "type": "Feature",
      "properties": {
        "norad_id": 44333,
        "name": "AT&T T-16",
        "group": "intelsat",
        "lat": 0.0049892594978592055,
        "lon": -146.1693965523347,
        "alt_km": 35786.074751962195,
        "timestamp": "2025-12-23T14:49:08.998098+00:00",
        "meta_object_name": "AT&T T-16",
        "meta_object_id": "2019-034A",
        "meta_epoch": "2025-12-23T03:21:38.542752",
        "meta_mean_motion": 1.00269221,
        "meta_eccentricity": 8.459e-05,
        "meta_inclination": 0.0204,
        "meta_ra_of_asc_node": 63.1564,
        "meta_arg_of_pericenter": 72.8406,
        "meta_mean_anomaly": 265.4876,
        "meta_ephemeris_type": 0,
        "meta_classification_type": "U",
        "meta_norad_cat_id": 44333,
        "meta_element_set_no": 999,
        "meta_rev_at_epoch": 2386,
        "meta_bstar": 0,
        "meta_mean_motion_dot": -9.4e-07,
        "meta_mean_motion_ddot": 0,
        "tle_line1": "1 44333U 19034A   25357.14002943 -.00000094  00000+0  00000+0 0  9991",
        "tle_line2": "2 44333   0.0204  63.1564 0000845  72.8406 265.4876  1.00269221 23864"
      },
      "geometry": {
        "type": "Point",
        "coordinates": [
          -146.1693965523347,
          0.0049892594978592055
        ]
      }
    },
    {
      "type": "Feature",
      "properties": {
        "norad_id": 44476,
        "name": "INTELSAT 39 (IS-39)",
        "group": "intelsat",
        "lat": 0.016008821176917886,
        "lon": 16.617389583553454,
        "alt_km": 35789.58021674367,
        "timestamp": "2025-12-23T14:49:08.998110+00:00",
        "meta_object_name": "INTELSAT 39 (IS-39)",
        "meta_object_id": "2019-049B",
        "meta_epoch": "2025-12-23T04:42:38.708640",
        "meta_mean_motion": 1.00270289,
        "meta_eccentricity": 0.00012093,
        "meta_inclination": 0.0189,
        "meta_ra_of_asc_node": 343.7704,
        "meta_arg_of_pericenter": 160.7012,
        "meta_mean_anomaly": 80.1243,
        "meta_ephemeris_type": 0,
        "meta_classification_type": "U",
        "meta_norad_cat_id": 44476,
        "meta_element_set_no": 999,
        "meta_rev_at_epoch": 2336,
        "meta_bstar": 0,
        "meta_mean_motion_dot": 5.5e-07,
        "meta_mean_motion_ddot": 0,
        "tle_line1": "1 44476U 19049B   25357.19628135  .00000055  00000+0  00000+0 0  9993",
        "tle_line2": "2 44476   0.0189 343.7704 0001209 160.7012  80.1243  1.00270289 23363"
      },
      "geometry": {
        "type": "Point",
        "coordinates": [
          16.617389583553454,
          0.016008821176917886
        ]
      }
    },
    {
      "type": "Feature",
      "properties": {
        "norad_id": 46114,
        "name": "GALAXY 30 (G-30)",
        "group": "intelsat",
        "lat": 0.0013199219137406946,
        "lon": -170.33679193353805,
        "alt_km": 35784.6555103297,
        "timestamp": "2025-12-23T14:49:08.998122+00:00",
        "meta_object_name": "GALAXY 30 (G-30)",
        "meta_object_id": "2020-056C",
        "meta_epoch": "2025-12-23T03:38:39.356160",
        "meta_mean_motion": 1.00270214,
        "meta_eccentricity": 0.00020157,
        "meta_inclination": 0.0188,
        "meta_ra_of_asc_node": 12.6466,
        "meta_arg_of_pericenter": 254.5213,
        "meta_mean_anomaly": 114.4446,
        "meta_ephemeris_type": 0,
        "meta_classification_type": "U",
        "meta_norad_cat_id": 46114,
        "meta_element_set_no": 999,
        "meta_rev_at_epoch": 1952,
        "meta_bstar": 0,
        "meta_mean_motion_dot": 5.8e-07,
        "meta_mean_motion_ddot": 0,
        "tle_line1": "1 46114U 20056C   25357.15184440  .00000058  00000+0  00000+0 0  9999",
        "tle_line2": "2 46114   0.0188  12.6466 0002015 254.5213 114.4446  1.00270214 19528"
      },
      "geometry": {
        "type": "Point",
        "coordinates": [
          -170.33679193353805,
          0.0013199219137406946
        ]
      }
    },
    {
      "type": "Feature",
      "properties": {
        "norad_id": 54026,
        "name": "GALAXY 33 (G-33)",
        "group": "intelsat",
        "lat": -0.011864498518965693,
        "lon": -178.32829775958572,
        "alt_km": 35785.11766929856,
        "timestamp": "2025-12-23T14:49:08.998134+00:00",
        "meta_object_name": "GALAXY 33 (G-33)",
        "meta_object_id": "2022-128A",
        "meta_epoch": "2025-12-22T11:35:15.906336",
        "meta_mean_motion": 1.00271669,
        "meta_eccentricity": 0.00015964,
        "meta_inclination": 0.0184,
        "meta_ra_of_asc_node": 305.6803,
        "meta_arg_of_pericenter": 318.2802,
        "meta_mean_anomaly": 228.1459,
        "meta_ephemeris_type": 0,
        "meta_classification_type": "U",
        "meta_norad_cat_id": 54026,
        "meta_element_set_no": 999,
        "meta_rev_at_epoch": 1197,
        "meta_bstar": 0,
        "meta_mean_motion_dot": 1.01e-06,
        "meta_mean_motion_ddot": 0,
        "tle_line1": "1 54026U 22128A   25356.48282299  .00000101  00000+0  00000+0 0  9997",
        "tle_line2": "2 54026   0.0184 305.6803 0001596 318.2802 228.1459  1.00271669 11973"
      },
      "geometry": {
        "type": "Point",
        "coordinates": [
          -178.32829775958572,
          -0.011864498518965693
        ]
      }
    },
    {
      "type": "Feature",
      "properties": {
        "norad_id": 54027,
        "name": "GALAXY 34 (G-34)",
        "group": "intelsat",
        "lat": -0.008515397755092833,
        "lon": -174.2926099689654,
        "alt_km": 35785.29707862109,
        "timestamp": "2025-12-23T14:49:08.998147+00:00",
        "meta_object_name": "GALAXY 34 (G-34)",
        "meta_object_id": "2022-128B",
        "meta_epoch": "2025-12-23T06:43:21.759744",
        "meta_mean_motion": 1.00269465,
        "meta_eccentricity": 0.0001844,
        "meta_inclination": 0.0227,
        "meta_ra_of_asc_node": 347.0413,
        "meta_arg_of_pericenter": 278.1688,
        "meta_mean_anomaly": 158.7483,
        "meta_ephemeris_type": 0,
        "meta_classification_type": "U",
        "meta_norad_cat_id": 54027,
        "meta_element_set_no": 999,
        "meta_rev_at_epoch": 1214,
        "meta_bstar": 0,
        "meta_mean_motion_dot": 0,
        "meta_mean_motion_ddot": 0,
        "tle_line1": "1 54027U 22128B   25357.28011296  .00000000  00000+0  00000+0 0  9992",
        "tle_line2": "2 54027   0.0227 347.0413 0001844 278.1688 158.7483  1.00269465 12147"
      },
      "geometry": {
        "type": "Point",
        "coordinates": [
          -174.2926099689654,
          -0.008515397755092833
        ]
      }
    },
    {
      "type": "Feature",
      "properties": {
        "norad_id": 54243,
        "name": "GALAXY 31 (G-31)",
        "group": "intelsat",
        "lat": -0.01065540011535318,
        "lon": -166.33500484082893,
        "alt_km": 35786.01990416619,
        "timestamp": "2025-12-23T14:49:08.998160+00:00",
        "meta_object_name": "GALAXY 31 (G-31)",
        "meta_object_id": "2022-153A",
        "meta_epoch": "2025-12-23T06:48:11.617920",
        "meta_mean_motion": 1.00271322,
        "meta_eccentricity": 0.00014471,
        "meta_inclination": 0.0291,
        "meta_ra_of_asc_node": 246.4931,
        "meta_arg_of_pericenter": 35.5879,
        "meta_mean_anomaly": 151.0395,
        "meta_ephemeris_type": 0,
        "meta_classification_type": "U",
        "meta_norad_cat_id": 54243,
        "meta_element_set_no": 999,
        "meta_rev_at_epoch": 536,
        "meta_bstar": 0,
        "meta_mean_motion_dot": 3.4e-07,
        "meta_mean_motion_ddot": 0,
        "tle_line1": "1 54243U 22153A   25357.28346780  .00000034  00000+0  00000+0 0  9996",
        "tle_line2": "2 54243   0.0291 246.4931 0001447  35.5879 151.0395  1.00271322  5360"
      },
      "geometry": {
        "type": "Point",
        "coordinates": [
          -166.33500484082893,
          -0.01065540011535318
        ]
      }
    },
    {
      "type": "Feature",
      "properties": {
        "norad_id": 54244,
        "name": "GALAXY 32 (G-32)",
        "group": "intelsat",
        "lat": -0.023244741486536085,
        "lon": -136.34605560754397,
        "alt_km": 35787.41575793686,
        "timestamp": "2025-12-23T14:49:08.998172+00:00",
        "meta_object_name": "GALAXY 32 (G-32)",
        "meta_object_id": "2022-153B",
        "meta_epoch": "2025-12-22T07:35:47.616576",
        "meta_mean_motion": 1.00270236,
        "meta_eccentricity": 0.00019823,
        "meta_inclination": 0.0109,
        "meta_ra_of_asc_node": 353.9495,
        "meta_arg_of_pericenter": 325.6757,
        "meta_mean_anomaly": 154.4441,
        "meta_ephemeris_type": 0,
        "meta_classification_type": "U",
        "meta_norad_cat_id": 54244,
        "meta_element_set_no": 999,
        "meta_rev_at_epoch": 1137,
        "meta_bstar": 0,
        "meta_mean_motion_dot": -1.52e-06,
        "meta_mean_motion_ddot": 0,
        "tle_line1": "1 54244U 22153B   25356.31652334 -.00000152  00000+0  00000+0 0  9997",
        "tle_line2": "2 54244   0.0109 353.9495 0001982 325.6757 154.4441  1.00270236 11370"
      },
      "geometry": {
        "type": "Point",
        "coordinates": [
          -136.34605560754397,
          -0.023244741486536085
        ]
      }
    }
  ]
}